FLOCK 2P-10             
1 41612U 16040P   17295.17874431  .00006982  00000-0  29897-3 0  9997
2 41612  97.4487 357.0911 0010720   8.1241 352.0167 15.23055403 73997
FLOCK 2P-8              
1 41613U 16040Q   17295.12950981  .00007578  00000-0  32420-3 0  9996
2 41613  97.4482 356.9794 0010819   7.4433 352.6962 15.23053238 73986
FLOCK 2P-12             
1 41614U 16040R   17295.41958875  .00005972  00000-0  25612-3 0  9990
2 41614  97.4491 357.4189 0010525   7.0106 353.1276 15.23066319 74033
FLOCK 2P-7              
1 41615U 16040S   17295.12379979  .00007826  00000-0  33452-3 0  9992
2 41615  97.4479 356.9701 0010653   7.9973 352.1432 15.23073856 73987
FLOCK 2P-5              
1 41616U 16040T   17295.23348920  .00006161  00000-0  26408-3 0  9991
2 41616  97.4492 357.2082 0010486   6.9702 353.1678 15.23075169 73984
FLOCK 2P-1              
1 41617U 16040U   17295.48453097  .00008000  00000-0  34177-3 0  9997
2 41617  97.4494 357.4880 0010209   6.2244 353.9118 15.23092481 74043
FLOCK 2P-3              
1 41618U 16040V   17295.38126505  .00006379  00000-0  27339-3 0  9997
2 41618  97.4492 357.3108 0010402   7.1867 352.9517 15.23063632 74026
BEESAT-4                
1 41619U 16040W   17295.16445473  .00002504  00000-0  11492-3 0  9991
2 41619  97.4484 356.2655 0011443 352.2657   7.8400 15.21303185 61896
3CAT-2                  
1 41732U 16051B   17295.47355495  .00001805  00000-0  74303-4 0  9991
2 41732  97.3725 210.5686 0013563 176.5827 271.1524 15.25348350 65935
FLOCK 2E'-13            
1 41761U 98067KH  17295.52716070  .00016898  00000-0  18096-3 0  9990
2 41761  51.6355 108.2841 0005322  21.4195 338.7022 15.63963715 62812
FLOCK 2E'-14            
1 41762U 98067KJ  17295.55466816  .00017425  00000-0  18340-3 0  9993
2 41762  51.6367 107.7557 0004827  22.2406 337.8797 15.64382942 62825
FLOCK 2E'-16            
1 41763U 98067KK  17295.48277173  .00020868  00000-0  21266-3 0  9998
2 41763  51.6371 107.2727 0004240  35.7393 324.3885 15.65065350 62784
FLOCK 2E'-15            
1 41764U 98067KL  17295.48317949  .00017723  00000-0  19059-3 0  9998
2 41764  51.6367 108.7728 0004938  30.3464 329.7815 15.63819674 62765
FLOCK 2E'-18            
1 41769U 98067KM  17295.52877006  .00018167  00000-0  19471-3 0  9994
2 41769  51.6365 108.3208 0004169  56.5042 303.6350 15.63887277 62775
FLOCK 2E'-17            
1 41776U 98067KN  17295.51303856  .00017860  00000-0  19005-3 0  9990
2 41776  51.6376 108.2447 0004327  57.4076 302.7336 15.64085140 62765
FLOCK 2E'-19            
1 41777U 98067KP  17295.50935545  .00027514  00000-0  24728-3 0  9991
2 41777  51.6349 102.8896 0002810  55.5767 304.5495 15.68026868 62790
FLOCK 2E'-20            
1 41782U 98067KQ  17295.51641382  .00025841  00000-0  24314-3 0  9993
2 41782  51.6364 104.4829 0002928  55.3602 304.7670 15.66929203 62647
CANX-7                  
1 41788U 16059F   17295.49539348  .00009143  00000-0  16530-2 0  9992
2 41788  98.1876 356.6372 0035547 133.1141 227.3061 14.66198993 57233
ALSAT 1N                
1 41789U 16059G   17295.54197770  .00000156  00000-0  38693-4 0  9999
2 41789  98.1536 356.2512 0029655 113.3114 247.1220 14.64090236 57249
RAVAN                   
1 41849U 16067B   17295.48112726  .00001179  00000-0  10698-3 0  9996
2 41849  97.9410  15.6244 0007875 230.9034 129.1487 14.97291347 51553
CELTEE 1                
1 41850U 16067C   17295.16251330  .00000610  00000-0  58847-4 0  9996
2 41850  97.9402  15.0983 0007925 229.2868 130.7665 14.96654282 51491
OPTICUBE 04             
1 41851U 16067D   17295.44232922  .00000838  00000-0  79024-4 0  9996
2 41851  97.9408  15.3517 0007718 229.1743 130.8809 14.96560171 51534
AEROCUBE 8D             
1 41852U 16067E   17295.44628314  .00000974  00000-0  91459-4 0  9998
2 41852  97.9422  15.2368 0008504 229.4223 130.6258 14.96316319 51522
AEROCUBE 8C             
1 41853U 16067F   17295.45472725  .00000586  00000-0  57239-4 0  9990
2 41853  97.9422  15.2239 0008815 231.6781 128.3648 14.96281423 51523
PROMETHEUS 2-1          
1 41854U 16067G   17295.53796263  .00000220  00000-0  24838-4 0  9990
2 41854  97.9422  15.2786 0009407 232.5017 127.5349 14.96289678 51531
PROMETHEUS 2-3          
1 41855U 16067H   17295.53999286  .00000263  00000-0  28615-4 0  9995
2 41855  97.9423  15.2807 0009631 232.9906 127.0434 14.96282812 51530
LEMUR-2-XIAOQING        
1 41871U 16062C   17295.39720090  .00003285  00000-0  15145-3 0  9997
2 41871  51.6358 202.4682 0004491 330.3730 136.4166 15.23071127 50328
LEMUR-2-SOKOLSKY        
1 41872U 16062D   17295.37973649  .00003563  00000-0  16250-3 0  9993
2 41872  51.6720 202.3741 0004856 349.7893 111.6119 15.23192380 50313
LEMUR-2-ANUBHAVTHAKUR   
1 41873U 16062E   17295.20326434  .00001668  00000-0  86611-4 0  9993
2 41873  51.6457 204.6747 0004908 344.7770 171.3145 15.21904015 50258
LEMUR-2-WINGO           
1 41874U 16062F   17295.36796508  .00003460  00000-0  16037-3 0  9990
2 41874  51.6381 202.8803 0004716 315.6548 142.9123 15.22723782 50302
STARS-C                 
1 41895U 98067KR  17295.50111902  .00081682  00000-0  61090-3 0  9994
2 41895  51.6333 108.0911 0001015 114.7269 245.3834 15.71968771 47931
TANCREDO-1              
1 41931U 98067KT  17290.98270503  .14164078  12479-4  76733-3 0  9998
2 41931  51.6104 115.9004 0006182 280.1451  79.8879 16.42240901 42996
ITF-2                   
1 41932U 98067KU  17295.53344500  .00023995  00000-0  25476-3 0  9992
2 41932  51.6379 113.6357 0003625  27.3102 332.8083 15.63930666 43435
WASEDA-SAT3             
1 41933U 98067KV  17295.56766072  .00029536  00000-0  29528-3 0  9997
2 41933  51.6357 112.3250 0003254  28.5297 331.5876 15.65332658 43453
AOBA-VELOX 3            
1 41935U 98067KX  17295.54462386  .00027292  00000-0  27889-3 0  9993
2 41935  51.6377 112.9499 0002943  31.0705 329.0464 15.64824976 43548
OSNSAT                  
1 41939U 98067KZ  17295.51380946  .00116624  00000-0  70248-3 0  9990
2 41939  51.6337 104.3974 0002512 344.2245  15.8677 15.76827245 42912
FLOCK 3P-8              
1 41951U 17008D   17295.51836082  .00002800  00000-0  12079-3 0  9995
2 41951  97.4817 356.4503 0010078 104.9629 255.2724 15.23338826 37919
FLOCK 3P-51             
1 41952U 17008E   17295.55432776  .00001804  00000-0  78875-4 0  9992
2 41952  97.4825 356.5751 0009863 120.1884 240.0331 15.23351328 37927
FLOCK 3P-37             
1 41953U 17008F   17295.56269049  .00003926  00000-0  16588-3 0  9994
2 41953  97.4821 356.7087 0009106 124.4526 235.7572 15.23807093 37932
INS-1B                  
1 41954U 17008G   17295.55767308  .00002337  00000-0  10460-3 0  9993
2 41954  97.4792 356.1750 0011264 104.9841 255.2642 15.22238210 37845
FLOCK 3P-19             
1 41955U 17008H   17295.59913635  .00002133  00000-0  92598-4 0  9991
2 41955  97.4813 356.4824 0010927 104.6571 255.5878 15.23378922 37847
FLOCK 3P-24             
1 41956U 17008J   17295.59587713  .00005085  00000-0  21633-3 0  9996
2 41956  97.4810 356.4856 0010714 102.4684 257.7752 15.23416549 37927
FLOCK 3P-18             
1 41957U 17008K   17295.59656933  .00004524  00000-0  19283-3 0  9993
2 41957  97.4810 356.4883 0010798 103.8071 256.4368 15.23406846 37765
FLOCK 3P-22             
1 41958U 17008L   17295.60307437  .00002071  00000-0  90039-4 0  9992
2 41958  97.4813 356.4822 0010596 104.0345 256.2070 15.23366565 37755
FLOCK 3P-21             
1 41959U 17008M   17295.39509522  .00002374  00000-0  10294-3 0  9998
2 41959  97.4820 356.3149 0010445 106.2182 254.0205 15.23314302 37737
FLOCK 3P-28             
1 41960U 17008N   17295.59041101  .00002156  00000-0  93762-4 0  9996
2 41960  97.4817 356.5080 0010374 104.0639 256.1752 15.23319465 37842
FLOCK 3P-26             
1 41961U 17008P   17295.59860544  .00002145  00000-0  93102-4 0  9993
2 41961  97.4816 356.4946 0010579 103.3800 256.8616 15.23386462 37769
FLOCK 3P-17             
1 41962U 17008Q   17295.57997800  .00003052  00000-0  13146-3 0  9995
2 41962  97.4816 356.5207 0010368 105.5835 254.6547 15.23313700 37718
FLOCK 3P-27             
1 41963U 17008R   17295.60752354  .00002085  00000-0  90704-4 0  9994
2 41963  97.4816 356.4853 0010725 103.8894 256.3536 15.23348261 37760
FLOCK 3P-25             
1 41964U 17008S   17295.39595495  .00001888  00000-0  82480-4 0  9994
2 41964  97.4817 356.3014 0010301 104.4632 255.7748 15.23322560 37714
FLOCK 3P-4              
1 41965U 17008T   17295.32464442  .00002205  00000-0  95843-4 0  9996
2 41965  97.4818 356.2522 0010265 105.8914 254.3455 15.23312748 37803
FLOCK 3P-2              
1 41966U 17008U   17295.58830985  .00002055  00000-0  89517-4 0  9998
2 41966  97.4819 356.5182 0010173 103.7326 256.5044 15.23322545 37761
FLOCK 3P-1              
1 41967U 17008V   17295.60802887  .00003815  00000-0  16455-3 0  9997
2 41967  97.4821 356.4970 0010237 105.5315 254.7053 15.23117365 37760
FLOCK 3P-3              
1 41968U 17008W   17295.59114632  .00002077  00000-0  90463-4 0  9991
2 41968  97.4817 356.5072 0010253 104.0926 256.1451 15.23316295 37840
FLOCK 3P-6              
1 41969U 17008X   17295.38867490  .00002184  00000-0  94921-4 0  9998
2 41969  97.4820 356.3259 0010058 104.3485 255.8869 15.23331448 37729
FLOCK 3P-7              
1 41970U 17008Y   17295.56747500  .00001983  00000-0  86428-4 0  9998
2 41970  97.4820 356.5481 0010126 106.4835 253.7515 15.23340154 37761
FLOCK 3P-5              
1 41971U 17008Z   17295.58297886  .00004181  00000-0  17904-3 0  9993
2 41971  97.4821 356.5323 0010112 106.3189 253.9160 15.23307094 37690
FLOCK 3P-12             
1 41972U 17008AA  17295.58158862  .00002079  00000-0  90570-4 0  9999
2 41972  97.4821 356.5323 0009930 106.4130 253.8199 15.23307938 37849
FLOCK 3P-9              
1 41973U 17008AB  17295.38783963  .00002132  00000-0  92792-4 0  9992
2 41973  97.4823 356.3358 0010097 105.1876 255.0478 15.23306894 37818
